NORAD_CAT_ID,OBJECT_NAME,OBJECT_TYPE,EPOCH,MEAN_MOTION,ECCENTRICITY,INCLINATION,RA_OF_ASC_NODE,ARG_OF_PERICENTER,MEAN_ANOMALY,BSTAR,MEAN_MOTION_DOT,MEAN_MOTION_DDOT,TLE_LINE0,TLE_LINE1,TLE_LINE2,SEMIMAJOR_AXIS,PERIOD,APOGEE,PERIGEE,DECAYED
54159.0,STARLINK-5294,PAYLOAD,2023-04-15 04:51:32,15.08868355,0.0001412,53.2154,90.1463,100.8367,259.2784,0.0005724,8.841e-05,0.0,0 STARLINK-5294,1 54159U 22141C   23105.20246006  .00008841  00000-0  57240-3 0  9997,2 54159  53.2154  90.1463 0001412 100.8367 259.2784 15.08868355 25779,6917.794,95.436,540.636,538.682,0.0
54159.0,STARLINK-5294,PAYLOAD,2023-04-15 06:26:55,15.08871059,0.0001415,53.2153,89.849,100.9879,259.1272,0.00062398,9.665e-05,0.0,0 STARLINK-5294,1 54159U 22141C   23105.26869853  .00009665  00000-0  62398-3 0  9999,2 54159  53.2153  89.8490 0001415 100.9879 259.1272 15.08871059 25782,6917.785,95.436,540.629,538.672,0.0
54159.0,STARLINK-5294,PAYLOAD,2023-04-15 15:59:13,15.08865161,0.0001346,53.2157,88.0641,79.6481,280.4662,0.00026743,3.974e-05,0.0,0 STARLINK-5294,1 54159U 22141C   23105.66613423  .00003974  00000-0  26743-3 0  9994,2 54159  53.2157  88.0641 0001346  79.6481 280.4662 15.08865161 25843,6917.803,95.436,540.6,538.737,0.0
54159.0,STARLINK-5294,PAYLOAD,2023-04-16 07:53:05,15.08854505,0.0001572,53.2164,85.0906,88.1592,271.958,5.9168e-05,6.54e-06,0.0,0 STARLINK-5294,1 54159U 22141C   23106.32853431  .00000654  00000-0  59168-4 0  9993,2 54159  53.2164  85.0906 0001572  88.1592 271.9580 15.08854505 25946,6917.836,95.437,540.789,538.614,0.0
54159.0,STARLINK-5294,PAYLOAD,2023-04-16 15:50:01,15.08847312,0.0001532,53.2161,83.6036,88.8883,271.2285,-2.284e-05,-6.52e-06,0.0,0 STARLINK-5294,1 54159U 22141C   23106.65973652 -.00000652  00000-0 -22840-4 0  9994,2 54159  53.2161  83.6036 0001532  88.8883 271.2285 15.08847312 25995,6917.858,95.437,540.783,538.663,0.0
54159.0,STARLINK-5294,PAYLOAD,2023-04-17 07:43:52,15.08847249,0.000133,53.2163,80.6285,90.8607,269.2538,-1.7175e-05,-5.61e-06,0.0,0 STARLINK-5294,1 54159U 22141C   23107.32213375 -.00000561  00000-0 -17175-4 0  9992,2 54159  53.2163  80.6285 0001330  90.8607 269.2538 15.08847249 26092,6917.858,95.437,540.643,538.803,0.0
54159.0,STARLINK-5294,PAYLOAD,2023-04-17 15:40:48,15.08846235,0.0001184,53.2152,79.1433,98.7134,261.3992,-6.4239e-06,-3.9e-06,0.0,0 STARLINK-5294,1 54159U 22141C   23107.65333336 -.00000390  00000-0 -64239-5 0  9992,2 54159  53.2152  79.1433 0001184  98.7134 261.3992 15.08846235 26144,6917.861,95.437,540.545,538.907,0.0
54159.0,STARLINK-5294,PAYLOAD,2023-04-18 07:34:39,15.08846297,0.0001356,53.2167,76.1675,100.1651,259.9494,0.00015787,2.226e-05,0.0,0 STARLINK-5294,1 54159U 22141C   23108.31573434  .00002226  00000-0  15787-3 0  9991,2 54159  53.2167  76.1675 0001356 100.1651 259.9494 15.08846297 26247,6917.861,95.437,540.664,538.788,0.0
54159.0,STARLINK-5294,PAYLOAD,2023-04-19 01:03:54,15.08835064,0.000131,53.2154,72.8962,100.9459,259.1681,9.8321e-05,1.277e-05,0.0,0 STARLINK-5294,1 54159U 22141C   23109.04438305  .00001277  00000-0  98321-4 0  9990,2 54159  53.2154  72.8962 0001310 100.9459 259.1681 15.08835064 26351,6917.895,95.438,540.667,538.854,0.0
54159.0,STARLINK-5294,PAYLOAD,2023-04-19 07:25:27,15.08838463,0.0001283,53.2168,71.7069,99.7459,260.3678,8.5765e-05,1.077e-05,0.0,0 STARLINK-5294,1 54159U 22141C   23109.30934250  .00001077  00000-0  85765-4 0  9995,2 54159  53.2168  71.7069 0001283  99.7459 260.3678 15.08838463 26396,6917.885,95.438,540.638,538.863,0.0
54159.0,STARLINK-5294,PAYLOAD,2023-04-20 07:16:13,15.0885129,8.39e-05,53.2176,67.25,90.1471,269.9618,0.00019884,2.879e-05,0.0,0 STARLINK-5294,1 54159U 22141C   23110.30293284  .00002879  00000-0  19884-3 0  9991,2 54159  53.2176  67.2500 0000839  90.1471 269.9618 15.08851290 26549,6917.846,95.437,540.291,539.13,0.0
54159.0,STARLINK-5294,PAYLOAD,2023-04-21 13:29:22,15.08046602,0.0001536,53.2167,61.6028,89.7331,270.3837,-0.010661,-0.00162589,0.0,0 STARLINK-5294,1 54159U 22141C   23111.56206513 -.00162589  00000-0 -10661-1 0  9998,2 54159  53.2167  61.6028 0001536  89.7331 270.3837 15.08046602 26739,6920.307,95.488,543.235,541.109,0.0
54159.0,STARLINK-5294,PAYLOAD,2023-04-21 22:00:00,15.07223087,0.0001534,53.2177,60.0132,96.0196,29.6729,-0.0017753,-0.00027217,0.0,0 STARLINK-5294,1 54159U 22141C   23111.91667824 -.00027217  00000-0 -17753-2 0  9991,2 54159  53.2177  60.0132 0001534  96.0196  29.6729 15.07223087 26780,6922.827,95.54,545.754,543.63,0.0
54159.0,STARLINK-5294,PAYLOAD,2023-04-22 00:00:02,15.07220279,0.0001528,53.2176,59.6406,93.4578,124.7097,-0.0022078,-0.00033746,0.0,0 STARLINK-5294,1 54159U 22141C   23112.00002315 -.00033746  00000-0 -22078-2 0  9990,2 54159  53.2176  59.6406 0001528  93.4578 124.7097 15.07220279  1301,6922.836,95.54,545.758,543.643,0.0
54159.0,STARLINK-5294,PAYLOAD,2023-04-22 14:00:01,15.07195427,0.0001495,53.2173,57.0284,93.1204,51.8215,0.0004606,6.733e-05,0.0,0 STARLINK-5294,1 54159U 22141C   23112.58334491  .00006733  00000-0  46060-3 0  9998,2 54159  53.2173  57.0284 0001495  93.1204  51.8215 15.07195427  1308,6922.912,95.542,545.812,543.742,0.0
54159.0,STARLINK-5294,PAYLOAD,2023-04-23 00:00:00,15.07255773,0.000153,53.2173,55.1635,91.7177,155.2557,-0.005532,-0.00083624,0.0,0 STARLINK-5294,1 54159U 22141C   23113.00001157 -.00083624  00000-0 -55320-2 0  9990,2 54159  53.2173  55.1635 0001530  91.7177 155.2557 15.07255773  1309,6922.727,95.538,545.651,543.533,0.0
54159.0,STARLINK-5294,PAYLOAD,2023-04-23 14:00:01,15.07182454,0.0001474,53.2172,52.5509,87.2574,86.5704,0.0011345,0.00017017,0.0,0 STARLINK-5294,1 54159U 22141C   23113.58334491  .00017017  00000-0  11345-2 0  9993,2 54159  53.2172  52.5509 0001474  87.2574  86.5704 15.07182454  1302,6922.951,95.543,545.837,543.796,0.0
54159.0,STARLINK-5294,PAYLOAD,2023-04-23 22:00:00,15.07220344,0.0001572,53.2174,51.0586,87.8667,95.5654,-0.00121,-0.00018662,0.0,0 STARLINK-5294,1 54159U 22141C   23113.91667824 -.00018662  00000-0 -12100-2 0  9998,2 54159  53.2174  51.0586 0001572  87.8667  95.5654 15.07220344  1306,6922.835,95.54,545.789,543.612,0.0
54159.0,STARLINK-5294,PAYLOAD,2023-04-24 06:00:00,15.07197798,0.0001548,53.2174,49.5675,75.5536,117.567,0.0036838,0.00056228,0.0,0 STARLINK-5294,1 54159U 22141C   23114.25001157  .00056228  00000-0  36838-2 0  9999,2 54159  53.2174  49.5675 0001548  75.5536 117.5670 15.07197798 27137,6922.905,95.542,545.841,543.698,0.0
54159.0,STARLINK-5294,PAYLOAD,2023-04-24 14:00:01,15.07228143,0.0001472,53.2175,48.0732,81.7567,121.0184,0.0040608,0.00062114,0.0,0 STARLINK-5294,1 54159U 22141C   23114.58334491  .00062114  00000-0  40608-2 0  9996,2 54159  53.2175  48.0732 0001472  81.7567 121.0184 15.07228143  1305,6922.812,95.54,545.696,543.658,0.0
54159.0,STARLINK-5294,PAYLOAD,2023-04-25 01:50:09,15.07250518,0.0001618,53.2178,45.8656,85.8276,274.29,0.00095962,0.00014372,0.0,0 STARLINK-5294,1 54159U 22141C   23115.07649779  .00014372  00000-0  95962-3 0  9996,2 54159  53.2178  45.8656 0001618  85.8276 274.2900 15.07250518 27263,6922.743,95.538,545.728,543.488,0.0
54159.0,STARLINK-5294,PAYLOAD,2023-04-26 04:53:29,15.0718661,0.0001421,53.2179,40.8171,69.2297,290.8847,-0.00039986,-6.362e-05,0.0,0 STARLINK-5294,1 54159U 22141C   23116.20381608 -.00006362  00000-0 -39986-3 0  9992,2 54159  53.2179  40.8171 0001421  69.2297 290.8847 15.07186610 27436,6922.939,95.542,545.788,543.82,0.0
54159.0,STARLINK-5294,PAYLOAD,2023-04-27 01:34:51,15.0719738,0.0001077,53.2174,36.9607,94.0344,266.0771,0.00024956,3.517e-05,0.0,0 STARLINK-5294,1 54159U 22141C   23117.06587710  .00003517  00000-0  24956-3 0  9997,2 54159  53.2174  36.9607 0001077  94.0344 266.0771 15.07197380 27568,6922.906,95.542,545.516,544.025,0.0
54159.0,STARLINK-5294,PAYLOAD,2023-04-28 03:02:41,15.07215866,0.0001281,53.2176,32.2068,88.2944,271.8194,0.0005604,8.26e-05,0.0,0 STARLINK-5294,1 54159U 22141C   23118.12686842  .00008260  00000-0  56040-3 0  9990,2 54159  53.2176  32.2068 0001281  88.2944 271.8194 15.07215866 27729,6922.849,95.54,545.601,543.827,0.0
54159.0,STARLINK-5294,PAYLOAD,2023-04-28 11:00:08,15.07205329,9.95e-05,53.217,30.7257,113.0114,247.0982,0.00013319,1.745e-05,0.0,0 STARLINK-5294,1 54159U 22141C   23118.45842966  .00001745  00000-0  13319-3 0  9990,2 54159  53.2170  30.7257 0000995 113.0114 247.0982 15.07205329 27771,6922.881,95.541,545.435,544.058,0.0
54159.0,STARLINK-5294,PAYLOAD,2023-04-29 02:55:02,15.0720362,0.0001454,53.2176,27.7544,91.3823,268.7335,0.00013626,1.791e-05,0.0,0 STARLINK-5294,1 54159U 22141C   23119.12155408  .00001791  00000-0  13626-3 0  9995,2 54159  53.2176  27.7544 0001454  91.3823 268.7335 15.07203620 27873,6922.887,95.541,545.758,543.745,0.0
54159.0,STARLINK-5294,PAYLOAD,2023-04-30 02:47:22,15.07218998,0.0001585,53.2174,23.2993,91.8459,268.2714,0.00062107,9.186e-05,0.0,0 STARLINK-5294,1 54159U 22141C   23120.11622973  .00009186  00000-0  62107-3 0  9996,2 54159  53.2174  23.2993 0001585  91.8459 268.2714 15.07218998 28023,6922.84,95.54,545.802,543.607,0.0
54159.0,STARLINK-5294,PAYLOAD,2023-05-01 02:39:42,15.07206981,0.0001438,53.2177,18.8461,108.4967,251.6181,0.0001942,2.674e-05,0.0,0 STARLINK-5294,1 54159U 22141C   23121.11091208  .00002674  00000-0  19420-3 0  9993,2 54159  53.2177  18.8461 0001438 108.4967 251.6181 15.07206981 28171,6922.876,95.541,545.737,543.746,0.0
54159.0,STARLINK-5294,PAYLOAD,2023-05-01 21:45:34,15.07214479,0.0001287,53.2181,15.2811,97.0614,263.0523,0.0003778,5.473e-05,0.0,0 STARLINK-5294,1 54159U 22141C   23121.90665401  .00005473  00000-0  37780-3 0  9991,2 54159  53.2181  15.2811 0001287  97.0614 263.0523 15.07214479 28291,6922.853,95.54,545.609,543.827,0.0
54159.0,STARLINK-5294,PAYLOAD,2023-05-02 02:32:02,15.0722036,0.0001418,53.218,14.3885,114.3032,245.8107,0.00064677,9.579e-05,0.0,0 STARLINK-5294,1 54159U 22141C   23122.10558730  .00009579  00000-0  64677-3 0  9996,2 54159  53.2180  14.3885 0001418 114.3032 245.8107 15.07220360 28320,6922.835,95.54,545.682,543.719,0.0
